[{"OBJECT_NAME":"STARLINK-2517","OBJECT_ID":"2021-036AK","EPOCH":"2026-03-10T00:00:02.999808","MEAN_MOTION":15.31001061,"ECCENTRICITY":0.00014361,"INCLINATION":53.1608,"RA_OF_ASC_NODE":87.075,"ARG_OF_PERICENTER":91.5522,"MEAN_ANOMALY":44.4443,"EPHEMERIS_TYPE":0,"CLASSIFICATION_TYPE":"U","NORAD_CAT_ID":48309,"ELEMENT_SET_NO":999,"REV_AT_EPOCH":579,"BSTAR":0.001597019,"MEAN_MOTION_DOT":0.00048443,"MEAN_MOTION_DDOT":0},{"OBJECT_NAME":"CZ-4B DEB","OBJECT_ID":"1999-057DZ","EPOCH":"2026-03-09T09:52:12.897696","MEAN_MOTION":15.33653758,"ECCENTRICITY":0.00127381,"INCLINATION":98.4932,"RA_OF_ASC_NODE":238.6814,"ARG_OF_PERICENTER":254.7139,"MEAN_ANOMALY":105.2693,"EPHEMERIS_TYPE":0,"CLASSIFICATION_TYPE":"U","NORAD_CAT_ID":26235,"ELEMENT_SET_NO":999,"REV_AT_EPOCH":38912,"BSTAR":0.0023807093,"MEAN_MOTION_DOT":0.00078286,"MEAN_MOTION_DDOT":0}]
